NORAD_CAT_ID,OBJECT_NAME,OBJECT_TYPE,EPOCH,MEAN_MOTION,ECCENTRICITY,INCLINATION,RA_OF_ASC_NODE,ARG_OF_PERICENTER,MEAN_ANOMALY,BSTAR,MEAN_MOTION_DOT,MEAN_MOTION_DDOT,TLE_LINE0,TLE_LINE1,TLE_LINE2,SEMIMAJOR_AXIS,PERIOD,APOGEE,PERIGEE,DECAYED
55316.0,STARLINK-5257,PAYLOAD,2024-07-30 22:13:19,14.98333392,0.0003061,69.9999,43.793,270.389,89.6918,8.4081e-05,9.1e-06,0.0,0 STARLINK-5257,1 55316U 23010AZ  24212.92591953  .00000910  00000-0  84081-4 0  9995,2 55316  69.9999  43.7930 0003061 270.3890  89.6918 14.98333392 86750,6950.182,96.107,574.175,569.92,0.0
55316.0,STARLINK-5257,PAYLOAD,2024-07-31 14:14:40,14.98328822,0.0002915,70.0006,42.1098,269.1582,90.9243,3.9741e-05,3.81e-06,0.0,0 STARLINK-5257,1 55316U 23010AZ  24213.59352290  .00000381  00000-0  39741-4 0  9993,2 55316  70.0006  42.1098 0002915 269.1582  90.9243 14.98328822 86850,6950.197,96.107,574.088,570.036,0.0
55316.0,STARLINK-5257,PAYLOAD,2024-07-31 22:15:20,14.98331995,0.0003071,69.9998,41.2658,266.115,93.9658,1.9294e-06,-7e-07,0.0,0 STARLINK-5257,1 55316U 23010AZ  24213.92732138 -.00000070  00000-0  19294-5 0  9991,2 55316  69.9998  41.2658 0003071 266.1150  93.9658 14.98331995 86905,6950.187,96.107,574.186,569.917,0.0
55316.0,STARLINK-5257,PAYLOAD,2024-08-01 12:40:32,14.98325462,0.0003111,69.9998,39.7511,268.1002,91.9801,0.00031306,3.644e-05,0.0,0 STARLINK-5257,1 55316U 23010AZ  24214.52815724  .00003644  00000-0  31306-3 0  9996,2 55316  69.9998  39.7511 0003111 268.1002  91.9801 14.98325462 86997,6950.207,96.107,574.234,569.91,0.0
55316.0,STARLINK-5257,PAYLOAD,2024-08-01 20:41:12,14.98340105,0.0003048,70.0,38.9094,267.8294,92.2516,0.00011761,1.311e-05,0.0,0 STARLINK-5257,1 55316U 23010AZ  24214.86195103  .00001311  00000-0  11761-3 0  9997,2 55316  70.0000  38.9094 0003048 267.8294  92.2516 14.98340105 85862,6950.162,96.106,574.145,569.908,0.0
55316.0,STARLINK-5257,PAYLOAD,2024-08-01 22:17:20,14.98341607,0.0003052,70.0,38.7412,267.9937,92.0872,0.00013318,1.497e-05,0.0,0 STARLINK-5257,1 55316U 23010AZ  24214.92870938  .00001497  00000-0  13318-3 0  9995,2 55316  70.0000  38.7412 0003052 267.9937  92.0872 14.98341607 87058,6950.157,96.106,574.143,569.901,0.0
55316.0,STARLINK-5257,PAYLOAD,2024-08-02 12:42:34,14.98326575,0.0003053,70.0001,37.2264,267.8325,92.2484,3.232e-05,2.93e-06,0.0,0 STARLINK-5257,1 55316U 23010AZ  24215.52956114  .00000293  00000-0  32320-4 0  9991,2 55316  70.0001  37.2264 0003053 267.8325  92.2484 14.98326575 85965,6950.203,96.107,574.19,569.947,0.0
55316.0,STARLINK-5257,PAYLOAD,2024-08-02 14:18:42,14.98324763,0.0003072,70.0,37.0582,268.0436,92.0371,1.3564e-05,6.9e-07,0.0,0 STARLINK-5257,1 55316U 23010AZ  24215.59632280  .00000069  00000-0  13564-4 0  9993,2 55316  70.0000  37.0582 0003072 268.0436  92.0371 14.98324763 87155,6950.209,96.107,574.209,569.939,0.0
55316.0,STARLINK-5257,PAYLOAD,2024-08-02 22:19:22,14.98326462,0.0003145,69.9999,36.2176,269.8069,90.273,9.0815e-06,1.5e-07,0.0,0 STARLINK-5257,1 55316U 23010AZ  24215.93012232  .00000015  00000-0  90815-5 0  9996,2 55316  69.9999  36.2176 0003145 269.8069  90.2730 14.98326462 87204,6950.204,96.107,574.255,569.883,0.0
55316.0,STARLINK-5257,PAYLOAD,2024-08-03 12:44:34,14.98338003,0.0003027,70.0003,34.7028,272.1669,87.9143,2.9574e-05,2.6e-06,0.0,0 STARLINK-5257,1 55316U 23010AZ  24216.53095497  .00000260  00000-0  29574-4 0  9992,2 55316  70.0003  34.7028 0003027 272.1669  87.9143 14.98338003 86118,6950.168,96.106,574.137,569.929,0.0
55316.0,STARLINK-5257,PAYLOAD,2024-08-03 14:20:42,14.98337751,0.0003036,70.0003,34.5345,272.0798,88.0013,2.7367e-05,2.34e-06,0.0,0 STARLINK-5257,1 55316U 23010AZ  24216.59771486  .00000234  00000-0  27367-4 0  9996,2 55316  70.0003  34.5345 0003036 272.0798  88.0013 14.98337751 87309,6950.169,96.107,574.144,569.924,0.0
55316.0,STARLINK-5257,PAYLOAD,2024-08-03 22:21:22,14.9834173,0.0003103,70.0002,33.6926,273.1096,86.9708,2.8067e-05,2.42e-06,0.0,0 STARLINK-5257,1 55316U 23010AZ  24216.93151056  .00000242  00000-0  28067-4 0  9996,2 55316  70.0002  33.6926 0003103 273.1096  86.9708 14.98341730 87356,6950.157,96.106,574.178,569.865,0.0
55316.0,STARLINK-5257,PAYLOAD,2024-08-04 12:46:36,14.98323019,0.0003052,70.0003,32.1781,270.8979,89.1831,5.8171e-05,6.01e-06,0.0,0 STARLINK-5257,1 55316U 23010AZ  24217.53236143  .00000601  00000-0  58171-4 0  9992,2 55316  70.0003  32.1781 0003052 270.8979  89.1831 14.98323019 86268,6950.214,96.107,574.201,569.958,0.0
55316.0,STARLINK-5257,PAYLOAD,2024-08-04 14:22:44,14.98323505,0.0003047,70.0003,32.0098,271.0421,89.0389,6.2466e-05,6.52e-06,0.0,0 STARLINK-5257,1 55316U 23010AZ  24217.59912129  .00000652  00000-0  62466-4 0  9991,2 55316  70.0003  32.0098 0003047 271.0421  89.0389 14.98323505 87456,6950.213,96.107,574.196,569.96,0.0
55316.0,STARLINK-5257,PAYLOAD,2024-08-04 20:47:15,14.98330907,0.0002977,70.0004,31.3365,271.1975,88.8843,0.0001414,1.595e-05,0.0,0 STARLINK-5257,1 55316U 23010AZ  24217.86615572  .00001595  00000-0  14140-3 0  9995,2 55316  70.0004  31.3365 0002977 271.1975  88.8843 14.98330907 86312,6950.19,96.107,574.124,569.986,0.0
55316.0,STARLINK-5257,PAYLOAD,2024-08-05 19:13:08,14.98332318,0.0002829,70.0009,28.98,267.423,92.6605,1.832e-05,1.26e-06,0.0,0 STARLINK-5257,1 55316U 23010AZ  24218.80079646  .00000126  00000-0  18320-4 0  9990,2 55316  70.0009  28.9800 0002829 267.4230  92.6605 14.98332318 87634,6950.186,96.107,574.017,570.085,0.0
55316.0,STARLINK-5257,PAYLOAD,2024-08-06 04:49:57,14.98332989,0.0003006,70.0007,27.9697,270.9963,89.0852,-2.4327e-05,-3.83e-06,0.0,0 STARLINK-5257,1 55316U 23010AZ  24219.20135605 -.00000383  00000-0 -24327-4 0  9994,2 55316  70.0007  27.9697 0003006 270.9963  89.0852 14.98332989 86519,6950.184,96.107,574.138,569.959,0.0
55316.0,STARLINK-5257,PAYLOAD,2024-08-06 14:26:45,14.98326363,0.0002884,70.0007,26.9599,267.6529,92.43,2.4145e-05,1.95e-06,0.0,0 STARLINK-5257,1 55316U 23010AZ  24219.60191990  .00000195  00000-0  24145-4 0  9994,2 55316  70.0007  26.9599 0002884 267.6529  92.4300 14.98326363 87755,6950.204,96.107,574.074,570.065,0.0
55316.0,STARLINK-5257,PAYLOAD,2024-08-06 20:51:18,14.98328351,0.0002917,70.0009,26.2871,270.0445,90.038,3.6993e-05,3.48e-06,0.0,0 STARLINK-5257,1 55316U 23010AZ  24219.86895892  .00000348  00000-0  36993-4 0  9998,2 55316  70.0009  26.2871 0002917 270.0445  90.0380 14.98328351 87790,6950.198,96.107,574.09,570.036,0.0
55316.0,STARLINK-5257,PAYLOAD,2024-08-07 12:52:38,14.98331219,0.0003133,70.0008,24.6026,270.1573,89.9227,7.4662e-05,7.98e-06,0.0,0 STARLINK-5257,1 55316U 23010AZ  24220.53655569  .00000798  00000-0  74662-4 0  9993,2 55316  70.0008  24.6026 0003133 270.1573  89.9227 14.98331219 86712,6950.189,96.107,574.232,569.877,0.0
55316.0,STARLINK-5257,PAYLOAD,2024-08-07 20:53:18,14.9833877,0.0002955,70.0009,23.76,267.2449,92.8372,0.00015069,1.706e-05,0.0,0 STARLINK-5257,1 55316U 23010AZ  24220.87034840  .00001706  00000-0  15069-3 0  9998,2 55316  70.0009  23.7600 0002955 267.2449  92.8372 14.98338770 86769,6950.166,96.106,574.085,569.977,0.0
55316.0,STARLINK-5257,PAYLOAD,2024-08-08 12:54:39,14.98329647,0.0002968,70.0017,22.0779,270.103,89.9789,0.00011283,1.254e-05,0.0,0 STARLINK-5257,1 55316U 23010AZ  24221.53795519  .00001254  00000-0  11283-3 0  9991,2 55316  70.0017  22.0779 0002968 270.1030  89.9789 14.98329647 88045,6950.194,96.107,574.122,569.996,0.0
55316.0,STARLINK-5257,PAYLOAD,2024-08-08 20:55:19,14.98335886,0.0002947,70.002,21.2373,269.8141,90.268,0.00013916,1.568e-05,0.0,0 STARLINK-5257,1 55316U 23010AZ  24221.87175046  .00001568  00000-0  13916-3 0  9998,2 55316  70.0020  21.2373 0002947 269.8141  90.2680 14.98335886 86916,6950.175,96.107,574.088,569.991,0.0
55316.0,STARLINK-5257,PAYLOAD,2024-08-09 12:56:40,14.98334898,0.000264,70.0024,19.5543,255.7519,104.3347,2.0981e-05,1.57e-06,0.0,0 STARLINK-5257,1 55316U 23010AZ  24222.53935233  .00000157  00000-0  20981-4 0  9998,2 55316  70.0024  19.5543 0002640 255.7519 104.3347 14.98334898 88193,6950.178,96.107,573.878,570.208,0.0
55316.0,STARLINK-5257,PAYLOAD,2024-08-09 20:57:20,14.98337136,0.0002751,70.0025,18.712,260.6488,99.436,7.0403e-05,7.47e-06,0.0,0 STARLINK-5257,1 55316U 23010AZ  24222.87314897  .00000747  00000-0  70403-4 0  9991,2 55316  70.0025  18.7120 0002751 260.6488  99.4360 14.98337136 87061,6950.171,96.107,573.948,570.124,0.0
55316.0,STARLINK-5257,PAYLOAD,2024-08-10 12:58:41,14.98325188,0.0002604,70.0028,17.0288,257.967,102.1197,2.8364e-05,2.45e-06,0.0,0 STARLINK-5257,1 55316U 23010AZ  24223.54075670  .00000245  00000-0  28364-4 0  9991,2 55316  70.0028  17.0288 0002604 257.9670 102.1197 14.98325188 87165,6950.208,96.107,573.883,570.263,0.0
55316.0,STARLINK-5257,PAYLOAD,2024-08-10 14:34:49,14.98325111,0.0002694,70.0027,16.8606,258.6959,101.3897,1.748e-05,1.16e-06,0.0,0 STARLINK-5257,1 55316U 23010AZ  24223.60751660  .00000116  00000-0  17480-4 0  9992,2 55316  70.0027  16.8606 0002694 258.6959 101.3897 14.98325111 88358,6950.208,96.107,573.945,570.201,0.0
55316.0,STARLINK-5257,PAYLOAD,2024-08-10 19:23:13,14.98331466,0.0002656,70.0025,16.3564,254.8981,105.1884,2.7132e-05,2.31e-06,0.0,0 STARLINK-5257,1 55316U 23010AZ  24223.80779234  .00000231  00000-0  27132-4 0  9994,2 55316  70.0025  16.3564 0002656 254.8981 105.1884 14.98331466 88386,6950.188,96.107,573.899,570.207,0.0
55316.0,STARLINK-5257,PAYLOAD,2024-08-11 21:01:20,14.98351252,0.0003347,70.0017,13.6617,269.0344,91.0432,0.00023634,2.73e-05,0.0,0 STARLINK-5257,1 55316U 23010AZ  24224.87593580  .00002730  00000-0  23634-3 0  9998,2 55316  70.0017  13.6617 0003347 269.0344  91.0432 14.98351252 87369,6950.127,96.106,574.318,569.666,0.0
55316.0,STARLINK-5257,PAYLOAD,2024-08-12 03:25:54,14.98335649,0.0003249,70.0021,12.9877,273.9969,86.0819,-1.5965e-05,-2.84e-06,0.0,0 STARLINK-5257,1 55316U 23010AZ  24225.14298918 -.00000284  00000-0 -15965-4 0  9999,2 55316  70.0021  12.9877 0003249 273.9969  86.0819 14.98335649 87402,6950.175,96.107,574.299,569.782,0.0
